NORAD_CAT_ID,OBJECT_NAME,OBJECT_TYPE,EPOCH,MEAN_MOTION,ECCENTRICITY,INCLINATION,RA_OF_ASC_NODE,ARG_OF_PERICENTER,MEAN_ANOMALY,BSTAR,MEAN_MOTION_DOT,MEAN_MOTION_DDOT,TLE_LINE0,TLE_LINE1,TLE_LINE2,SEMIMAJOR_AXIS,PERIOD,APOGEE,PERIGEE,DECAYED
53706.0,STARLINK-4716,PAYLOAD,2024-03-02 20:08:47,15.08843191,0.0001622,53.2182,312.0267,107.0644,253.0526,1.867e-05,9e-08,0.0,0 STARLINK-4716,1 53706U 22107G   24062.83943545  .00000009  00000-0  18670-4 0  9993,2 53706  53.2182 312.0267 0001622 107.0644 253.0526 15.08843191 82865,6917.871,95.437,540.858,538.614,0.0
53706.0,STARLINK-4716,PAYLOAD,2024-03-02 21:44:10,15.0884153,0.0001668,53.218,311.7294,114.6658,245.4508,1.1109e-06,-2.7e-06,0.0,0 STARLINK-4716,1 53706U 22107G   24062.90567607 -.00000270  00000-0  11109-5 0  9994,2 53706  53.2180 311.7294 0001668 114.6658 245.4508 15.08841530 83623,6917.876,95.437,540.895,538.587,0.0
53706.0,STARLINK-4716,PAYLOAD,2024-03-03 02:30:20,15.08838256,0.0001537,53.2183,310.8371,108.9038,251.2121,-2.3103e-06,-3.25e-06,0.0,0 STARLINK-4716,1 53706U 22107G   24063.10439815 -.00000325  00000-0 -23103-5 0  9995,2 53706  53.2183 310.8371 0001537 108.9038 251.2121 15.08838256 83655,6917.886,95.438,540.814,538.687,0.0
53706.0,STARLINK-4716,PAYLOAD,2024-03-03 19:59:34,15.08830457,0.0001117,53.217,307.5658,90.1839,269.9281,6.2627e-05,7.09e-06,0.0,0 STARLINK-4716,1 53706U 22107G   24063.83304311  .00000709  00000-0  62627-4 0  9994,2 53706  53.2170 307.5658 0001117  90.1839 269.9281 15.08830457 83767,6917.91,95.438,540.547,539.002,0.0
53706.0,STARLINK-4716,PAYLOAD,2024-03-04 02:21:06,15.088563,0.0001564,53.2177,306.3734,111.506,248.6099,-3.0848e-05,-7.79e-06,0.0,0 STARLINK-4716,1 53706U 22107G   24064.09798759 -.00000779  00000-0 -30848-4 0  9995,2 53706  53.2177 306.3734 0001564 111.5060 248.6099 15.08856300 83054,6917.831,95.437,540.778,538.614,0.0
53706.0,STARLINK-4716,PAYLOAD,2024-03-04 19:50:20,15.0884208,0.0001503,53.2179,303.102,96.7741,263.3422,0.00022,3.215e-05,0.0,0 STARLINK-4716,1 53706U 22107G   24064.82662870  .00003215  00000-0  22000-3 0  9996,2 53706  53.2179 303.1020 0001503  96.7741 263.3422 15.08842080 83168,6917.874,95.437,540.779,538.699,0.0
53706.0,STARLINK-4716,PAYLOAD,2024-03-04 23:01:06,15.08848769,0.0001198,53.2154,302.5123,79.0103,281.1024,0.00024431,3.603e-05,0.0,0 STARLINK-4716,1 53706U 22107G   24064.95910832  .00003603  00000-0  24431-3 0  9995,2 53706  53.2154 302.5123 0001198  79.0103 281.1024 15.08848769 83935,6917.854,95.437,540.547,538.89,0.0
53706.0,STARLINK-4716,PAYLOAD,2024-03-05 00:36:29,15.08853602,0.0001285,53.2156,302.2141,86.9519,273.162,0.00029888,4.474e-05,0.0,0 STARLINK-4716,1 53706U 22107G   24065.02534524  .00004474  00000-0  29888-3 0  9992,2 53706  53.2156 302.2141 0001285  86.9519 273.1620 15.08853602 83945,6917.839,95.437,540.593,538.815,0.0
53706.0,STARLINK-4716,PAYLOAD,2024-03-05 21:16:31,15.08831552,0.0001481,53.2179,298.3441,85.3291,274.787,-0.00015748,-2.793e-05,0.0,0 STARLINK-4716,1 53706U 22107G   24065.88648039 -.00002793  00000-0 -15748-3 0  9997,2 53706  53.2179 298.3441 0001481  85.3291 274.7870 15.08831552 83322,6917.906,95.438,540.796,538.747,0.0
53706.0,STARLINK-4716,PAYLOAD,2024-03-05 22:51:55,15.08827392,0.0001596,53.2177,298.0471,70.3675,289.7489,-0.00020903,-3.612e-05,0.0,0 STARLINK-4716,1 53706U 22107G   24065.95272371 -.00003612  00000-0 -20903-3 0  9997,2 53706  53.2177 298.0471 0001596  70.3675 289.7489 15.08827392 84080,6917.919,95.438,540.888,538.68,0.0
53706.0,STARLINK-4716,PAYLOAD,2024-03-06 19:31:55,15.08841221,0.0001103,53.2156,294.1855,90.4199,269.692,-1.3876e-05,-5.09e-06,0.0,0 STARLINK-4716,1 53706U 22107G   24066.81383881 -.00000509  00000-0 -13876-4 0  9996,2 53706  53.2156 294.1855 0001103  90.4199 269.6920 15.08841221 83463,6917.877,95.437,540.505,538.979,0.0
53706.0,STARLINK-4716,PAYLOAD,2024-03-07 08:15:00,15.08841956,0.0001238,53.2171,291.8071,85.9051,274.2083,4.6386e-05,4.5e-06,0.0,0 STARLINK-4716,1 53706U 22107G   24067.34375874  .00000450  00000-0  46386-4 0  9993,2 53706  53.2171 291.8071 0001238  85.9051 274.2083 15.08841956 84298,6917.874,95.437,540.596,538.883,0.0
53706.0,STARLINK-4716,PAYLOAD,2024-03-08 08:05:48,15.08841121,0.0001349,53.2164,287.3443,88.6813,271.4333,0.00021547,3.143e-05,0.0,0 STARLINK-4716,1 53706U 22107G   24068.33736663  .00003143  00000-0  21547-3 0  9993,2 53706  53.2164 287.3443 0001349  88.6813 271.4333 15.08841121 83696,6917.877,95.437,540.675,538.809,0.0
53706.0,STARLINK-4716,PAYLOAD,2024-03-08 20:48:53,15.08848969,0.0001282,53.217,284.9667,80.0276,280.0861,0.0001334,1.836e-05,0.0,0 STARLINK-4716,1 53706U 22107G   24068.86728075  .00001836  00000-0  13340-3 0  9998,2 53706  53.2170 284.9667 0001282  80.0276 280.0861 15.08848969 84521,6917.853,95.437,540.605,538.831,0.0
53706.0,STARLINK-4716,PAYLOAD,2024-03-09 14:18:07,15.08837707,0.0001286,53.2136,281.6944,95.6367,264.4772,8.9384e-05,1.135e-05,0.0,0 STARLINK-4716,1 53706U 22107G   24069.59592567  .00001135  00000-0  89384-4 0  9998,2 53706  53.2136 281.6944 0001286  95.6367 264.4772 15.08837707 84639,6917.887,95.438,540.642,538.863,0.0
53706.0,STARLINK-4716,PAYLOAD,2024-03-09 20:39:39,15.08846129,0.0001046,53.2143,280.5055,79.9855,280.1255,-0.00010889,-2.021e-05,0.0,0 STARLINK-4716,1 53706U 22107G   24069.86087880 -.00002021  00000-0 -10889-3 0  9995,2 53706  53.2143 280.5055 0001046  79.9855 280.1255 15.08846129 84672,6917.862,95.437,540.45,539.003,0.0
53706.0,STARLINK-4716,PAYLOAD,2024-03-09 23:50:26,15.08840589,0.0001352,53.2148,279.9117,87.1822,272.9324,3.1343e-05,2.11e-06,0.0,0 STARLINK-4716,1 53706U 22107G   24069.99336460  .00000211  00000-0  31343-4 0  9996,2 53706  53.2148 279.9117 0001352  87.1822 272.9324 15.08840589 84695,6917.879,95.438,540.679,538.808,0.0
53706.0,STARLINK-4716,PAYLOAD,2024-03-10 20:30:27,15.08833688,0.0001009,53.2172,276.0454,76.8012,283.3093,6.9796e-05,8.23e-06,0.0,0 STARLINK-4716,1 53706U 22107G   24070.85449007  .00000823  00000-0  69796-4 0  9997,2 53706  53.2172 276.0454 0001009  76.8012 283.3093 15.08833688 84072,6917.9,95.438,540.463,539.067,0.0
53706.0,STARLINK-4716,PAYLOAD,2024-03-10 22:05:51,15.0883225,0.0001065,53.2179,275.7481,77.6125,282.4986,0.00010744,1.422e-05,0.0,0 STARLINK-4716,1 53706U 22107G   24070.92073016  .00001422  00000-0  10744-3 0  9992,2 53706  53.2179 275.7481 0001065  77.6125 282.4986 15.08832250 84830,6917.904,95.438,540.506,539.032,0.0
53706.0,STARLINK-4716,PAYLOAD,2024-03-10 23:41:14,15.08837096,0.0001372,53.2172,275.449,88.0594,272.0555,6.4169e-05,7.33e-06,0.0,0 STARLINK-4716,1 53706U 22107G   24070.98696807  .00000733  00000-0  64169-4 0  9992,2 53706  53.2172 275.4490 0001372  88.0594 272.0555 15.08837096 84848,6917.889,95.438,540.703,538.805,0.0
53706.0,STARLINK-4716,PAYLOAD,2024-03-11 23:32:00,15.08842129,0.0001427,53.2166,270.9896,80.1196,279.9957,0.00011343,1.518e-05,0.0,0 STARLINK-4716,1 53706U 22107G   24071.98056529  .00001518  00000-0  11343-3 0  9991,2 53706  53.2166 270.9896 0001427  80.1196 279.9957 15.08842129 84242,6917.874,95.437,540.726,538.752,0.0
53706.0,STARLINK-4716,PAYLOAD,2024-03-12 20:12:01,15.08840735,0.0001582,53.2175,267.1233,73.753,286.3636,7.865e-05,9.64e-06,0.0,0 STARLINK-4716,1 53706U 22107G   24072.84168922  .00000964  00000-0  78650-4 0  9997,2 53706  53.2175 267.1233 0001582  73.7530 286.3636 15.08840735 85122,6917.878,95.438,540.838,538.649,0.0
53706.0,STARLINK-4716,PAYLOAD,2024-03-12 23:22:48,15.0884161,0.0001606,53.2175,266.5285,73.0804,287.0364,8.0846e-05,9.99e-06,0.0,0 STARLINK-4716,1 53706U 22107G   24072.97416853  .00000999  00000-0  80846-4 0  9998,2 53706  53.2175 266.5285 0001606  73.0804 287.0364 15.08841610 84393,6917.875,95.437,540.851,538.629,0.0
53706.0,STARLINK-4716,PAYLOAD,2024-03-13 05:44:21,15.08823186,0.0001526,53.2157,265.3392,82.6721,277.4445,0.00026294,3.897e-05,0.0,0 STARLINK-4716,1 53706U 22107G   24073.23913738  .00003897  00000-0  26294-3 0  9998,2 53706  53.2157 265.3392 0001526  82.6721 277.4445 15.08823186 84430,6917.932,95.439,540.852,538.741,0.0
53706.0,STARLINK-4716,PAYLOAD,2024-03-13 21:38:11,15.08848124,0.0001248,53.2108,262.3636,76.0324,284.0807,1.4344e-05,-6e-07,0.0,0 STARLINK-4716,1 53706U 22107G   24073.90152468 -.00000060  00000-0  14344-4 0  9991,2 53706  53.2108 262.3636 0001248  76.0324 284.0807 15.08848124 85280,6917.856,95.437,540.584,538.857,0.0
53706.0,STARLINK-4716,PAYLOAD,2024-03-14 05:35:07,15.08841937,2.95e-05,53.2153,260.8788,226.2686,133.8282,6.6382e-05,7.69e-06,0.0,0 STARLINK-4716,1 53706U 22107G   24074.23272030  .00000769  00000-0  66382-4 0  9990,2 53706  53.2153 260.8788 0000295 226.2686 133.8282 15.08841937 85331,6917.874,95.437,539.944,539.535,0.0
53706.0,STARLINK-4716,PAYLOAD,2024-03-14 11:56:40,15.08838295,0.0001395,53.2131,259.6896,92.738,267.3772,4.4677e-05,4.23e-06,0.0,0 STARLINK-4716,1 53706U 22107G   24074.49768989  .00000423  00000-0  44677-4 0  9991,2 53706  53.2131 259.6896 0001395  92.7380 267.3772 15.08838295 84623,6917.886,95.438,540.716,538.786,0.0
53706.0,STARLINK-4716,PAYLOAD,2024-03-14 21:28:59,15.08838963,0.0001609,53.2167,257.9052,88.0077,272.11,0.00011025,1.467e-05,0.0,0 STARLINK-4716,1 53706U 22107G   24074.89512868  .00001467  00000-0  11025-3 0  9997,2 53706  53.2167 257.9052 0001609  88.0077 272.1100 15.08838963 85437,6917.884,95.438,540.862,538.635,0.0
53706.0,STARLINK-4716,PAYLOAD,2024-03-16 11:38:14,15.08824832,0.0001284,53.2169,250.7678,93.7178,266.3961,0.00022661,3.319e-05,0.0,0 STARLINK-4716,1 53706U 22107G   24076.48489557  .00003319  00000-0  22661-3 0  9998,2 53706  53.2169 250.7678 0001284  93.7178 266.3961 15.08824832 84921,6917.927,95.439,540.68,538.903,0.0
53706.0,STARLINK-4716,PAYLOAD,2024-03-16 14:49:00,15.08836783,0.0001153,53.2168,250.1738,103.9473,256.1648,0.00011494,1.542e-05,0.0,0 STARLINK-4716,1 53706U 22107G   24076.61737001  .00001542  00000-0  11494-3 0  9991,2 53706  53.2168 250.1738 0001153 103.9473 256.1648 15.08836783 85690,6917.89,95.438,540.553,538.958,0.0
